IRIDIUM 150             
1 43257U 18030J   25016.79133599 -.00000117  00000+0 -48746-4 0  9996
2 43257  86.4013 146.3489 0002112 101.5211 258.6223 14.34218535356140
IRIDIUM 143             
1 43258U 18030K   25016.42346557  .00000492  00000+0  16843-3 0  9993
2 43258  86.4015 146.5743 0002353 105.6093 254.5362 14.34220620356022
IRIDIUM 161             
1 43478U 18047C   25016.72360985  .00000712  00000+0  20557-3 0  9991
2 43478  86.4504 304.2922 0002225  80.8001 279.3451 14.43276465350646
IRIDIUM 152             
1 43479U 18047D   25016.25664596  .00000111  00000+0  32588-4 0  9996
2 43479  86.3980 304.3469 0002047  84.1559 275.9870 14.34217880348390
IRIDIUM 147             
1 43480U 18047E   25016.54205793  .00000565  00000+0  19479-3 0  9996
2 43480  86.3979 304.2237 0002146  74.5091 285.6342 14.34222621348432
IRIDIUM 110             
1 43481U 18047F   25016.54840527  .00000545  00000+0  18756-3 0  9992
2 43481  86.3983 304.2994 0001804  78.8638 281.2761 14.34220859348429
IRIDIUM 162             
1 43482U 18047G   25016.50929565  .00000738  00000+0  21339-3 0  9994
2 43482  86.4504 304.2791 0001929  84.7288 275.4133 14.43281552350608
IRIDIUM 160             
1 43569U 18061A   25016.70354700  .00000465  00000+0  15885-3 0  9997
2 43569  86.3957 272.5930 0002003  78.6434 281.4986 14.34220549339346
